[{"OBJECT_NAME":"STARLINK-4432","OBJECT_ID":"2022-099Y","EPOCH":"2026-03-09T22:06:52.901568","MEAN_MOTION":15.05636048,"ECCENTRICITY":9.595e-5,"INCLINATION":97.6019,"RA_OF_ASC_NODE":191.4441,"ARG_OF_PERICENTER":99.2216,"MEAN_ANOMALY":260.912,"EPHEMERIS_TYPE":0,"CLASSIFICATION_TYPE":"U","NORAD_CAT_ID":53487,"ELEMENT_SET_NO":999,"REV_AT_EPOCH":19608,"BSTAR":-1.3025967e-5,"MEAN_MOTION_DOT":-2.49e-6,"MEAN_MOTION_DDOT":0},{"OBJECT_NAME":"COSMOS 807","OBJECT_ID":"1976-022A","EPOCH":"2026-03-09T22:26:32.449920","MEAN_MOTION":14.61425434,"ECCENTRICITY":0.04604657,"INCLINATION":82.9148,"RA_OF_ASC_NODE":45.0203,"ARG_OF_PERICENTER":213.1542,"MEAN_ANOMALY":175.2323,"EPHEMERIS_TYPE":0,"CLASSIFICATION_TYPE":"U","NORAD_CAT_ID":8744,"ELEMENT_SET_NO":999,"REV_AT_EPOCH":53512,"BSTAR":0.00024537229,"MEAN_MOTION_DOT":5.984e-5,"MEAN_MOTION_DDOT":0}]
